[{"OBJECT_NAME":"ASTRO-H (HITOMI)","OBJECT_ID":"2016-012A","EPOCH":"2026-03-06T04:43:17.000256","MEAN_MOTION":15.09975986,"ECCENTRICITY":0.00099793,"INCLINATION":31.0009,"RA_OF_ASC_NODE":19.0871,"ARG_OF_PERICENTER":296.2634,"MEAN_ANOMALY":63.6979,"EPHEMERIS_TYPE":0,"CLASSIFICATION_TYPE":"U","NORAD_CAT_ID":41337,"ELEMENT_SET_NO":999,"REV_AT_EPOCH":55170,"BSTAR":0.00026965948,"MEAN_MOTION_DOT":4.586e-5,"MEAN_MOTION_DDOT":0},{"OBJECT_NAME":"HXMT (HUIYAN)","OBJECT_ID":"2017-034A","EPOCH":"2026-03-06T06:56:07.904832","MEAN_MOTION":15.17406206,"ECCENTRICITY":0.00325599,"INCLINATION":43.0152,"RA_OF_ASC_NODE":35.5784,"ARG_OF_PERICENTER":215.2219,"MEAN_ANOMALY":144.6477,"EPHEMERIS_TYPE":0,"CLASSIFICATION_TYPE":"U","NORAD_CAT_ID":42758,"ELEMENT_SET_NO":999,"REV_AT_EPOCH":48202,"BSTAR":0.00034989992,"MEAN_MOTION_DOT":6.983e-5,"MEAN_MOTION_DDOT":0},{"OBJECT_NAME":"SAOCOM 1A","OBJECT_ID":"2018-076A","EPOCH":"2026-03-06T07:37:08.546592","MEAN_MOTION":14.82163342,"ECCENTRICITY":0.00012831,"INCLINATION":97.8884,"RA_OF_ASC_NODE":253.5374,"ARG_OF_PERICENTER":82.0482,"MEAN_ANOMALY":278.0876,"EPHEMERIS_TYPE":0,"CLASSIFICATION_TYPE":"U","NORAD_CAT_ID":43641,"ELEMENT_SET_NO":999,"REV_AT_EPOCH":40086,"BSTAR":1.5747771e-5,"MEAN_MOTION_DOT":7.3e-7,"MEAN_MOTION_DDOT":0},{"OBJECT_NAME":"H-2A R/B","OBJECT_ID":"2018-084L","EPOCH":"2026-03-06T03:53:26.308320","MEAN_MOTION":15.41163517,"ECCENTRICITY":0.00256551,"INCLINATION":98.8728,"RA_OF_ASC_NODE":281.7968,"ARG_OF_PERICENTER":37.3103,"MEAN_ANOMALY":322.9914,"EPHEMERIS_TYPE":0,"CLASSIFICATION_TYPE":"U","NORAD_CAT_ID":43682,"ELEMENT_SET_NO":999,"REV_AT_EPOCH":40523,"BSTAR":0.00048167884,"MEAN_MOTION_DOT":0.0002012,"MEAN_MOTION_DDOT":0},{"OBJECT_NAME":"SAOCOM 1B","OBJECT_ID":"2020-059A","EPOCH":"2026-03-06T06:44:52.733760","MEAN_MOTION":14.82170251,"ECCENTRICITY":0.00014847,"INCLINATION":97.8883,"RA_OF_ASC_NODE":252.5997,"ARG_OF_PERICENTER":82.6199,"MEAN_ANOMALY":277.5183,"EPHEMERIS_TYPE":0,"CLASSIFICATION_TYPE":"U","NORAD_CAT_ID":46265,"ELEMENT_SET_NO":999,"REV_AT_EPOCH":29824,"BSTAR":0.00013737748,"MEAN_MOTION_DOT":1.042e-5,"MEAN_MOTION_DDOT":0},{"OBJECT_NAME":"CSS (TIANHE)","OBJECT_ID":"2021-035A","EPOCH":"2026-03-05T22:33:18.119520","MEAN_MOTION":15.60447182,"ECCENTRICITY":0.00068802,"INCLINATION":41.4658,"RA_OF_ASC_NODE":230.9734,"ARG_OF_PERICENTER":250.1024,"MEAN_ANOMALY":109.9073,"EPHEMERIS_TYPE":0,"CLASSIFICATION_TYPE":"U","NORAD_CAT_ID":48274,"ELEMENT_SET_NO":999,"REV_AT_EPOCH":27702,"BSTAR":0.00022289437,"MEAN_MOTION_DOT":0.00018582,"MEAN_MOTION_DDOT":0},{"OBJECT_NAME":"COSMOS 2550","OBJECT_ID":"2021-056A","EPOCH":"2026-03-06T06:10:00.568992","MEAN_MOTION":15.33824163,"ECCENTRICITY":0.00083334,"INCLINATION":67.1451,"RA_OF_ASC_NODE":51.3149,"ARG_OF_PERICENTER":269.8481,"MEAN_ANOMALY":90.1719,"EPHEMERIS_TYPE":0,"CLASSIFICATION_TYPE":"U","NORAD_CAT_ID":48865,"ELEMENT_SET_NO":999,"REV_AT_EPOCH":26293,"BSTAR":-2.2056e-7,"MEAN_MOTION_DOT":-1.99e-6,"MEAN_MOTION_DDOT":0},{"OBJECT_NAME":"CZ-2C R/B","OBJECT_ID":"2022-058K","EPOCH":"2026-03-06T02:30:32.770080","MEAN_MOTION":15.53925606,"ECCENTRICITY":0.00422447,"INCLINATION":50.1901,"RA_OF_ASC_NODE":336.728,"ARG_OF_PERICENTER":185.5572,"MEAN_ANOMALY":174.4935,"EPHEMERIS_TYPE":0,"CLASSIFICATION_TYPE":"U","NORAD_CAT_ID":52794,"ELEMENT_SET_NO":999,"REV_AT_EPOCH":20957,"BSTAR":0.00054511149,"MEAN_MOTION_DOT":0.00036957,"MEAN_MOTION_DDOT":0},{"OBJECT_NAME":"CZ-2C R/B","OBJECT_ID":"2022-132E","EPOCH":"2026-03-06T02:29:20.588928","MEAN_MOTION":15.61488036,"ECCENTRICITY":0.00208174,"INCLINATION":97.2964,"RA_OF_ASC_NODE":68.3129,"ARG_OF_PERICENTER":103.1705,"MEAN_ANOMALY":257.1877,"EPHEMERIS_TYPE":0,"CLASSIFICATION_TYPE":"U","NORAD_CAT_ID":54039,"ELEMENT_SET_NO":999,"REV_AT_EPOCH":18981,"BSTAR":0.00052472889,"MEAN_MOTION_DOT":0.00045399,"MEAN_MOTION_DDOT":0},{"OBJECT_NAME":"GSLV R/B","OBJECT_ID":"2022-138AN","EPOCH":"2026-03-06T05:51:47.344608","MEAN_MOTION":14.96746333,"ECCENTRICITY":0.00225631,"INCLINATION":87.3886,"RA_OF_ASC_NODE":167.5155,"ARG_OF_PERICENTER":158.6361,"MEAN_ANOMALY":201.5818,"EPHEMERIS_TYPE":0,"CLASSIFICATION_TYPE":"U","NORAD_CAT_ID":54149,"ELEMENT_SET_NO":999,"REV_AT_EPOCH":18341,"BSTAR":0.00035659974,"MEAN_MOTION_DOT":4.123e-5,"MEAN_MOTION_DDOT":0},{"OBJECT_NAME":"XRISM","OBJECT_ID":"2023-137A","EPOCH":"2026-03-06T01:47:21.494112","MEAN_MOTION":15.11449805,"ECCENTRICITY":0.00080617,"INCLINATION":31.0027,"RA_OF_ASC_NODE":307.0459,"ARG_OF_PERICENTER":1.6884,"MEAN_ANOMALY":358.3781,"EPHEMERIS_TYPE":0,"CLASSIFICATION_TYPE":"U","NORAD_CAT_ID":57800,"ELEMENT_SET_NO":999,"REV_AT_EPOCH":13724,"BSTAR":0.00034222498,"MEAN_MOTION_DOT":6.032e-5,"MEAN_MOTION_DDOT":0},{"OBJECT_NAME":"ACS3","OBJECT_ID":"2024-077B","EPOCH":"2026-03-06T06:10:56.242560","MEAN_MOTION":13.89439378,"ECCENTRICITY":0.00570858,"INCLINATION":97.2098,"RA_OF_ASC_NODE":7.1413,"ARG_OF_PERICENTER":85.7289,"MEAN_ANOMALY":275.0395,"EPHEMERIS_TYPE":0,"CLASSIFICATION_TYPE":"U","NORAD_CAT_ID":59588,"ELEMENT_SET_NO":999,"REV_AT_EPOCH":9372,"BSTAR":0.023870869,"MEAN_MOTION_DOT":0.00029605,"MEAN_MOTION_DDOT":0},{"OBJECT_NAME":"SZ-21 MODULE","OBJECT_ID":"2025-246C","EPOCH":"2026-03-05T19:22:19.378272","MEAN_MOTION":15.68194204,"ECCENTRICITY":0.00014276,"INCLINATION":41.4734,"RA_OF_ASC_NODE":227.2544,"ARG_OF_PERICENTER":292.143,"MEAN_ANOMALY":67.926,"EPHEMERIS_TYPE":0,"CLASSIFICATION_TYPE":"U","NORAD_CAT_ID":66515,"ELEMENT_SET_NO":999,"REV_AT_EPOCH":1746,"BSTAR":0.00036031689,"MEAN_MOTION_DOT":0.0004131,"MEAN_MOTION_DDOT":0}]
